STARLINK-1486
1 25757C 20038AD  21325.15415097  .00004484  00000-0  30049-3 0  3258
2 25757  53.0547  62.5446 0001226  84.0711 148.6162 15.06387975    13
